IRIDIUM 155             
1 43573U 18061E   23216.88562895  .00000418  00000+0  14219-3 0  9995
2 43573  86.3997 134.4232 0002129  91.6333 268.5106 14.34218975263254
IRIDIUM 154             
1 43574U 18061F   23216.30845324  .00000116  00000+0  34339-4 0  9995
2 43574  86.4001 134.7468 0002180  76.3603 283.7836 14.34217245263217
IRIDIUM 163             
1 43575U 18061G   23217.12664802  .00000402  00000+0  13634-3 0  9999
2 43575  86.3999 134.3530 0002222  81.7112 278.4336 14.34215541263304
IRIDIUM 156             
1 43576U 18061H   23216.89197415  .00000356  00000+0  11995-3 0  9990
2 43576  86.4000 134.4570 0002484  88.4335 271.7146 14.34217611263254
IRIDIUM 164             
1 43577U 18061J   23216.94271396  .00000422  00000+0  14350-3 0  9990
2 43577  86.4000 134.4599 0002435  80.6470 279.5001 14.34219105263319
IRIDIUM 159             
1 43578U 18061K   23217.32960968  .00000101  00000+0  28844-4 0  9992
2 43578  86.3999 134.2572 0002177  83.3944 276.7500 14.34216788263333
IRIDIUM 180             
1 43922U 19002A   23216.70119333  .00000347  00000+0  11683-3 0  9998
2 43922  86.3931  71.3767 0002190  82.4024 277.7421 14.34214270238893
IRIDIUM 176             
1 43923U 19002B   23216.70870081  .00001143  00000+0  17746-3 0  9994
2 43923  86.6061  71.4103 0002461  88.2633 271.8866 14.72247561245131
IRIDIUM 168             
1 43924U 19002C   23216.13670647  .00000314  00000+0  10516-3 0  9995
2 43924  86.3932  71.6604 0002136  83.1170 277.0269 14.34220059238759
IRIDIUM 173             
1 43925U 19002D   23216.12400744  .00000349  00000+0  11763-3 0  9997
2 43925  86.3928  71.5975 0002094  83.9826 276.1608 14.34221332238745
IRIDIUM 169             
1 43926U 19002E   23217.09016108  .00000441  00000+0  13783-3 0  9999
2 43926  86.4210 102.8267 0003333 155.3610 204.7748 14.38599211239689
IRIDIUM 172             
1 43927U 19002F   23216.67581667  .00000071  00000+0  18168-4 0  9992
2 43927  86.3929  71.3716 0002146  84.6567 275.4874 14.34216273238821
IRIDIUM 175             
1 43928U 19002G   23217.11025315  .00001245  00000+0  19352-3 0  9995
2 43928  86.1478  62.2973 0002312  84.4559 275.6921 14.72242226245188
IRIDIUM 171             
1 43929U 19002H   23217.07540232  .00000328  00000+0  11002-3 0  9996
2 43929  86.3937  71.3945 0002199  81.9523 278.1922 14.34218847238874
IRIDIUM 170             
1 43930U 19002J   23216.71485761  .00001134  00000+0  17602-3 0  9991
2 43930  86.6060  71.4126 0002377  89.3065 270.8424 14.72247537245143
IRIDIUM 167             
1 43931U 19002K   23216.72021820  .00000335  00000+0  11268-3 0  9999
2 43931  86.3929  71.3660 0002244  83.6950 276.4501 14.34217935238822
IRIDIUM 181             
1 56726U 23068S   23216.77616047  .00000462  00000+0  13061-3 0  9992
2 56726  86.8626 109.7124 0003952  89.0060 271.1594 14.43621547 11345
IRIDIUM 177             
1 56727U 23068T   23216.76790899  .00001673  00000+0  21671-3 0  9991
2 56727  86.1969 106.0768 0002690  76.7111 283.4410 14.80229910 11422
IRIDIUM 174             
1 56728U 23068U   23217.10049980  .00001710  00000+0  22159-3 0  9993
2 56728  86.1975 105.9967 0002467  83.5992 276.5509 14.80233406 11476
IRIDIUM 178             
1 56729U 23068V   23217.09497745  .00001712  00000+0  22171-3 0  9994
2 56729  86.5778 108.4418 0002708  83.9157 276.2372 14.80267318 11470
IRIDIUM 179             
1 56730U 23068W   23216.75158943  .00001653  00000+0  21387-3 0  9994
2 56730  86.6787 108.7268 0002820  81.1121 279.0420 14.80269634 11428
